CUBERRT                 
1 43546U 98067NU  20098.83340755  .00010824  00000-0  89306-4 0  9991
2 43546  51.6342 283.1481 0003655 175.6352 184.4678 15.70946668 99132
TEMPEST-D               
1 43547U 98067NV  20098.84924666  .00006823  00000-0  83548-4 0  9998
2 43547  51.6366 308.1013 0005381 146.0215 214.1125 15.61672764 98484
RAINCUBE                
1 43548U 98067NW  20098.98162826  .00023881  00000-0  19274-3 0  9993
2 43548  51.6330 290.8640 0004636 180.4545 179.6449 15.70728108 99174
HALOSAT                 
1 43549U 98067NX  20098.82837836  .00021882  00000-0  18056-3 0  9993
2 43549  51.6353 292.1491 0004137 180.2955 179.8041 15.70255855 98700
ENDUROSAT ONE           
1 43551U 98067NZ  20098.77731585  .00034427  00000-0  22536-3 0  9991
2 43551  51.6334 284.2268 0004740 198.4500 161.6328 15.75442140 99217
EQUISAT                 
1 43552U 98067PA  20098.82257540  .00023018  00000-0  18521-3 0  9995
2 43552  51.6353 290.6504 0005155 186.6847 173.4083 15.70824078 99091
AEROCUBE 12A            
1 43556U 18046C   20098.81540502  .00001574  00000-0  66498-4 0  9990
2 43556  51.6420  84.9158 0008713  44.6477 315.5203 15.29580623 96565
AEROCUBE 12B            
1 43557U 18046D   20098.66771054  .00000526  00000-0  30735-4 0  9993
2 43557  51.6420  86.1706 0008777  44.4178 315.7505 15.29325904 96482
UITMSAT-1               
1 43589U 98067PD  20098.82251040  .00027782  00000-0  20651-3 0  9993
2 43589  51.6318 289.7431 0004786 198.4784 161.6041 15.72596706 94847
MAYA-1                  
1 43590U 98067PE  20098.81548474  .00027621  00000-0  20534-3 0  9996
2 43590  51.6315 289.7052 0004863 199.2055 160.8760 15.72596707 94773
BHUTAN-1                
1 43591U 98067PF  20098.92056151  .00028635  00000-0  21174-3 0  9992
2 43591  51.6331 288.9622 0004935 199.2769 160.8044 15.72701270 94798
SIRIUSSAT-1             
1 43595U 98067PG  20099.00140560  .00026710  00000-0  21415-3 0  9994
2 43595  51.6324 292.4670 0002819 169.4303 190.6754 15.70823275 93931
SIRIUSSAT-2             
1 43596U 98067PH  20098.80390860  .00024791  00000-0  20015-3 0  9994
2 43596  51.6331 294.2163 0003281 164.0693 196.0408 15.70701051 93892
TANUSHA-3               
1 43597U 98067PJ  20098.84211006  .00048995  00000-0  29385-3 0  9994
2 43597  51.6304 285.2893 0002999 204.1877 155.8983 15.77277976 94015
SURFSAT                 
1 43614U 18070B   20098.85711971  .00002208  00000-0  57602-4 0  9998
2 43614  93.0225 125.4162 0012667 245.5120 114.4813 15.38849098 87623
CP7 (DAVE)              
1 43615U 18070C   20099.07739227  .00002091  00000-0  54787-4 0  9999
2 43615  93.0227 125.5015 0012851 244.0107 115.9824 15.38722850 87655
ELFIN-B                 
1 43616U 18070D   20099.04605629  .00003161  00000-0  79534-4 0  9991
2 43616  93.0189 125.4114 0013275 246.7339 113.2518 15.39918012 87681
ELFIN-A                 
1 43617U 18070E   20099.08711221  .00003208  00000-0  80326-4 0  9995
2 43617  93.0243 125.8817 0012675 242.3290 117.6678 15.40070249 87697
CUBEBEL-1 (BSUSAT-1)    
1 43666U 18083E   20099.16622697  .00000960  00000-0  50347-4 0  9992
2 43666  97.4962 126.3060 0013378 242.6119 158.8928 15.18123417 79953
DEBRISSAT-2             
1 43680U 98067PR  20098.76303636  .00109951  00000-0  41368-3 0  9994
2 43680  51.6310 278.7563 0004835 251.9678 108.0800 15.86957209102827
CICERO 10               
1 43690U 18088A   20099.12528187  .00000860  00000-0  37874-4 0  9998
2 43690  85.0350 124.6676 0013941 199.5318 160.5391 15.20121898 78053
IRVINE01                
1 43693U 18088D   20098.78175334  .00001764  00000-0  74005-4 0  9995
2 43693  85.0320 123.7914 0017670 183.1100 177.0036 15.22561048 78099
PROXIMA I               
1 43694U 18088E   20099.06603026  .00000790  00000-0  32795-4 0  9990
2 43694  85.0293 123.4144 0019333 175.2059 184.9372 15.21850689 78130
PROXIMA II              
1 43696U 18088G   20099.06436539  .00000799  00000-0  33206-4 0  9992
2 43696  85.0294 123.4184 0019373 175.1629 184.9804 15.21853421 78130
FACSAT-1                
1 43721U 18096C   20099.10013723  .00001162  00000-0  46419-4 0  9996
2 43721  97.4250 173.0474 0017956  16.8654 343.3178 15.27038288 75656
CENTAURI-2              
1 43722U 18096D   20099.14885307  .00001793  00000-0  69161-4 0  9995
2 43722  97.4259 173.3076 0017951  16.7307 343.4521 15.27500764 75663
INNOSAT-2               
1 43738U 18096V   20099.16085527  .00002470  00000-0  87085-4 0  9998
2 43738  97.4273 175.0027 0023976  23.1461 337.0853 15.29986244 75781
SIRION PATHFINDER-2     
1 43759U 18099B   20099.17908746 -.00000256  00000-0 -18054-4 0  9994
2 43759  97.7101 172.0210 0015576  61.1370 299.1412 14.95248431 73425
CORVUS-BC 4             
1 43767U 18099K   20098.89338311  .00000303  00000-0  33100-4 0  9996
2 43767  97.7085 171.2270 0013226  66.4483 293.8125 14.94692152 73362
MOVE-II                 
1 43780U 18099Y   20098.79565450  .00000393  00000-0  40753-4 0  9997
2 43780  97.7105 171.5570 0014921  73.7910 286.4951 14.95327688 73359
SPACEBEE-7              
1 43816U 18099BL  20098.74907345  .00000817  00000-0  78552-4 0  9994
2 43816  97.7120 171.8589 0014695  60.0468 300.2209 14.95634243 72925
SPACEBEE-5              
1 43817U 18099BM  20098.72960283  .00000847  00000-0  80220-4 0  9991
2 43817  97.7161 172.1797 0014171  60.7618 299.5018 14.96163796 72939
SPACEBEE-6              
1 43818U 18099BN  20098.85482120  .00000227  00000-0  25436-4 0  9995
2 43818  97.7132 172.0697 0014454  59.0790 301.1850 14.95800940 73092
SHIELDS 1               
1 43850U 18104B   20099.08637733  .00000041  00000-0  00000+0 0  9995
2 43850  85.0292 221.8447 0014226 337.8516  22.2121 15.21324402 72771
STF-1                   
1 43852U 18104D   20098.56674706  .00000041  00000-0  00000-0 0  9991
2 43852  85.0345 222.6818 0014263 354.1022   6.0064 15.21140370 72673
ZACUBE-2                
1 43907U 18111AH  20099.15719447  .00000551  00000-0  25109-4 0  9995
2 43907  97.2718   1.0157 0022605  35.7885 324.4863 15.24513768 71307
LUME 1                  
1 43908U 18111AJ  20098.96944448  .00001020  00000-0  43567-4 0  9995
2 43908  97.2718   0.9596 0022431  36.1885 324.0866 15.24897660 71287
AOBA VELOX-IV           
1 43940U 19003J   20099.10901742  .00002094  00000-0  86587-4 0  9990
2 43940  97.2370 152.7798 0025851 111.0143 304.6436 15.24754949 67932
CATSAT-2                
1 44029U 98067PV  20099.03793898  .00013807  00000-0  15436-3 0  9997
2 44029  51.6382 312.4110 0004508 174.2800 185.8246 15.63050142 67506
DELPHINI                
1 44030U 98067PW  20098.83885116  .00014530  00000-0  15765-3 0  9990
2 44030  51.6350 312.5000 0004605 172.4950 187.6115 15.63771046 67458
UNITE                   
1 44031U 98067PX  20098.81100062  .00008358  00000-0  10745-3 0  9993
2 44031  51.6376 317.6116 0003602 161.8098 198.3025 15.60025252 67381
TECHEDSAT 8             
1 44032U 98067PY  20098.92078217  .00372594  68438-4  79136-3 0  9990
2 44032  51.6224 287.2867 0009199 267.4432  92.5524 15.98092580 67772
CATSAT-1                
1 44033U 98067PZ  20099.03781094  .00013246  00000-0  14830-3 0  9991
2 44033  51.6385 312.4152 0004341 171.2945 188.8126 15.63056067 67414
RAAVANA-1               
1 44329U 98067QE  20099.05287083  .00008914  00000-0  12983-3 0  9993
2 44329  51.6397 326.7682 0006849 102.8463 257.3294 15.56542893 46033
UGUISU                  
1 44330U 98067QF  20098.86940203  .00008207  00000-0  12040-3 0  9992
2 44330  51.6396 327.7896 0006828 101.2288 258.9471 15.56472131 45981
NEPALISAT-1             
1 44331U 98067QG  20099.04655066  .00008819  00000-0  12839-3 0  9999
2 44331  51.6394 326.7252 0006876 104.2126 255.9630 15.56572070 46025
SPOOQY-1                
1 44332U 98067QH  20098.91788226  .00008549  00000-0  12498-3 0  9991
2 44332  51.6397 327.3628 0005847 106.4197 253.7438 15.56506639 45964
SPACEBEE-9              
1 44370U 19037F   20098.84102706  .00007802  00000-0  18413-3 0  9992
2 44370  45.0146 150.2797 0011079 130.1482 230.0296 15.42421647 43698
SPACEBEE-8              
1 44371U 19037G   20098.82637623  .00014993  00000-0  31038-3 0  9999
2 44371  45.0171 146.8075 0008903 132.2413 227.9223 15.45670937 43726
IOD-1 GEMS              
1 44385U 98067QK  20098.86664888  .00012820  00000-0  17346-3 0  9994
2 44385  51.6408 327.0606 0002825  77.9176 282.2133 15.58096810 43481
MOVE-IIB                
1 44398U 19038N   20098.88464982  .00001196  00000-0  72626-4 0  9991
2 44398  97.5292  61.0537 0025845  14.3846 345.8114 15.12169303 41918
SONATE                  
1 44400U 19038Q   20099.16847288  .00000572  00000-0  36991-4 0  9993
2 44400  97.5324  61.3526 0025636  11.8603 348.3226 15.11886675 41953
LUCKY-7                 
1 44406U 19038W   20098.86524354  .00000613  00000-0  39160-4 0  9998
2 44406  97.5320  61.1340 0025118  12.7256 347.4603 15.12133561 41900
BEESAT 9                
1 44412U 19038AC  20099.13162826  .00000883  00000-0  54681-4 0  9992
2 44412  97.5313  61.3783 0023377  17.8605 342.3442 15.12183495 41648
JAISAT-1                
1 44419U 19038F   20099.10820870  .00000966  00000-0  58706-4 0  9990
2 44419  97.5315  61.5663 0022222  17.5817 342.6178 15.12666058 41961
SWIATOWID               
1 44426U 98067QL  20099.18744390  .00017504  00000-0  22987-3 0  9994
2 44426  51.6428 325.2335 0003682  77.3698  20.9472 15.58605833 43544
KRAKSAT                 
1 44427U 98067QM  20098.85609609  .00006417  00000-0  10101-3 0  9997
2 44427  51.6414 329.9825 0003851  63.0721 297.0663 15.54968233 43497
VCC A                   
1 44428U 98067QN  20098.88977490  .00008125  00000-0  12147-3 0  9997
2 44428  51.6412 328.7113 0003278  85.8012 274.3354 15.55977609 43517
ENTRYSAT                
1 44429U 98067QP  20098.83406568  .00009930  00000-0  14309-3 0  9993
2 44429  51.6400 328.3238 0002907  81.2085 278.9235 15.56693951 43511
